[{"OBJECT_NAME":"STARLINK-4417","OBJECT_ID":"2022-084M","EPOCH":"2026-03-09T17:53:39.725952","MEAN_MOTION":15.05649534,"ECCENTRICITY":9.057e-5,"INCLINATION":97.6031,"RA_OF_ASC_NODE":131.2277,"ARG_OF_PERICENTER":118.3866,"MEAN_ANOMALY":241.7452,"EPHEMERIS_TYPE":0,"CLASSIFICATION_TYPE":"U","NORAD_CAT_ID":53200,"ELEMENT_SET_NO":999,"REV_AT_EPOCH":20004,"BSTAR":-6.874592e-6,"MEAN_MOTION_DOT":-1.6e-6,"MEAN_MOTION_DDOT":0},{"OBJECT_NAME":"IRIDIUM 33 DEB","OBJECT_ID":"1997-051ABJ","EPOCH":"2026-03-07T11:02:11.153184","MEAN_MOTION":15.04355632,"ECCENTRICITY":0.00105712,"INCLINATION":86.348,"RA_OF_ASC_NODE":321.5871,"ARG_OF_PERICENTER":86.7515,"MEAN_ANOMALY":38.318,"EPHEMERIS_TYPE":0,"CLASSIFICATION_TYPE":"U","NORAD_CAT_ID":40996,"ELEMENT_SET_NO":999,"REV_AT_EPOCH":63758,"BSTAR":0.0045408492,"MEAN_MOTION_DOT":0.00063892,"MEAN_MOTION_DDOT":0}]
